IRIDIUM 155             
1 43573U 18061E   23170.69887119  .00000328  00000+0  11020-3 0  9999
2 43573  86.3978 153.7083 0002290  82.0842 278.0614 14.34215715256621
IRIDIUM 154             
1 43574U 18061F   23170.47053750  .00000268  00000+0  88661-4 0  9991
2 43574  86.3981 153.8840 0002557  90.7273 269.4216 14.34218187256648
IRIDIUM 163             
1 43575U 18061G   23170.80034957  .00000354  00000+0  11921-3 0  9997
2 43575  86.3979 153.6955 0002404  91.2252 268.9219 14.34218120256661
IRIDIUM 156             
1 43576U 18061H   23170.70521161  .00000063  00000+0  15455-4 0  9999
2 43576  86.3980 153.7409 0002116  85.1124 275.0313 14.34214738256642
IRIDIUM 164             
1 43577U 18061J   23170.68617833  .00000265  00000+0  87606-4 0  9990
2 43577  86.3989 153.7732 0002317  93.6855 266.4606 14.34218026256686
IRIDIUM 159             
1 43578U 18061K   23170.65447458  .00000283  00000+0  93824-4 0  9991
2 43578  86.3980 153.7457 0002447  87.8821 272.2655 14.34217622256640
IRIDIUM 180             
1 43922U 19002A   23170.51442862  .00000352  00000+0  11852-3 0  9996
2 43922  86.3965  90.6929 0002346  87.7630 272.3835 14.34219769232238
IRIDIUM 176             
1 43923U 19002B   23170.28665719  .00001277  00000+0  19863-3 0  9996
2 43923  86.6097  90.8268 0002479  86.4786 273.6715 14.72237786238307
IRIDIUM 168             
1 43924U 19002C   23170.29878229  .00000360  00000+0  12156-3 0  9990
2 43924  86.3969  90.8294 0002389  87.6279 272.5191 14.34214798232184
IRIDIUM 173             
1 43925U 19002D   23170.84424464  .00000339  00000+0  11407-3 0  9994
2 43925  86.3964  90.5350 0002436  86.6163 273.5311 14.34219595232246
IRIDIUM 169             
1 43926U 19002E   23170.62685791  .00000398  00000+0  12368-3 0  9995
2 43926  86.4226 122.2434 0003940  22.8629 337.2744 14.38601889233003
IRIDIUM 172             
1 43927U 19002F   23170.48906021  .00000220  00000+0  71664-4 0  9991
2 43927  86.3966  90.6882 0002385  85.4756 274.6712 14.34217832232204
IRIDIUM 175             
1 43928U 19002G   23170.28036369  .00001233  00000+0  19160-3 0  9996
2 43928  86.1513  84.5298 0002474  86.2634 273.8865 14.72229405238293
IRIDIUM 171             
1 43929U 19002H   23170.53980153  .00000349  00000+0  11747-3 0  9994
2 43929  86.3974  90.8520 0002367  87.3688 272.7779 14.34218742232204
IRIDIUM 170             
1 43930U 19002J   23170.49673985  .00001155  00000+0  17931-3 0  9990
2 43930  86.6097  90.7439 0002368  90.0612 270.0876 14.72236946238340
IRIDIUM 167             
1 43931U 19002K   23170.32415114  .00000365  00000+0  12335-3 0  9996
2 43931  86.3966  90.7698 0002377  88.7255 271.4213 14.34219466232178
IRIDIUM 181             
1 56726U 23068S   23170.60184340  .00001589  00000+0  20536-3 0  9995
2 56726  86.6768 127.8664 0003214 104.9704 255.1873 14.80308799  4596
IRIDIUM 177             
1 56727U 23068T   23170.59635381  .00001580  00000+0  20428-3 0  9991
2 56727  86.6758 127.8592 0002760 101.5040 258.6492 14.80277512  4590
IRIDIUM 174             
1 56728U 23068U   23170.72612918  .00001583  00000+0  20468-3 0  9995
2 56728  86.6812 127.8210 0002739 100.0040 260.1491 14.80277502  4618
IRIDIUM 178             
1 56729U 23068V   23170.58555144  .00001592  00000+0  20583-3 0  9995
2 56729  86.6757 127.8525 0002664 104.6060 255.5458 14.80277174  4598
IRIDIUM 179             
1 56730U 23068W   23170.17424423  .00001592  00000+0  20597-3 0  9992
2 56730  86.6797 128.0327 0002576 105.9441 254.2065 14.80253147  4534
